[Satellite]
VERSION=1.1
NAME=JCSAT-RA (JCSAT-12)
NICKNAME=JCSAT-RA (JCSAT-12)
TLE1=1 35755U 09044A   15054.68271780 -.00000371  00000-0  10000-3 0  9992
TLE2=2 35755   0.0580  46.3395 0000945 227.5262 253.0573  1.00270382 20239
